CCSDS_OPM_VERS = 2.0
CREATION_DATE = 2026-01-01T00:00:00.000000Z
ORIGINATOR = ASTRO_SUITE
COMMENT scenario_id = leo-two-body
COMMENT backend = local
META_START
OBJECT_NAME = leo-two-body
OBJECT_ID = leo-two-body
CENTER_NAME = EARTH
REF_FRAME = EME2000
TIME_SYSTEM = UTC
META_STOP
EPOCH = 2026-01-01T00:00:00.000000Z
X = 7000.0
Y = 0.0
Z = 0.0
X_DOT = 0.0
Y_DOT = 7.5
Z_DOT = 1.0
COVARIANCE_START
COV_REF_FRAME = EME2000
CX_X = 1.0
CY_X = 0.0
CY_Y = 1.0
CZ_X = 0.0
CZ_Y = 0.0
CZ_Z = 1.0
CX_DOT_X = 0.0
CX_DOT_Y = 0.0
CX_DOT_Z = 0.0
CX_DOT_X_DOT = 0.000001
CY_DOT_X = 0.0
CY_DOT_Y = 0.0
CY_DOT_Z = 0.0
CY_DOT_X_DOT = 0.0
CY_DOT_Y_DOT = 0.000001
CZ_DOT_X = 0.0
CZ_DOT_Y = 0.0
CZ_DOT_Z = 0.0
CZ_DOT_X_DOT = 0.0
CZ_DOT_Y_DOT = 0.0
CZ_DOT_Z_DOT = 0.000001
COVARIANCE_STOP
